{"type": "FeatureCollection", "features": [ {"type": "Feature", "properties": {"norad_id": 43262, "name": "GAOFEN-1 04", "group": "resource", "lat": -27.513443908426506, "lon": 47.53167616052608, "alt_km": 646.2784513057659, "timestamp": "2025-12-11T10:53:15.542577+00:00", "meta": {"OBJECT_NAME": "GAOFEN-1 04", "OBJECT_ID": "2018-031D", "EPOCH": "2025-12-11T04:30:26.294112", "MEAN_MOTION": 14.76443362, "ECCENTRICITY": 0.000109, "INCLINATION": 98.0804, "RA_OF_ASC_NODE": 43.0221, "ARG_OF_PERICENTER": 56.2311, "MEAN_ANOMALY": 303.9002, "EPHEMERIS_TYPE": 0, "CLASSIFICATION_TYPE": "U", "NORAD_CAT_ID": 43262, "ELEMENT_SET_NO": 999, "REV_AT_EPOCH": 41494, "BSTAR": 0.00018152, "MEAN_MOTION_DOT": 1.211e-05, "MEAN_MOTION_DDOT": 0}, "tle": {"line1": "1 43262U 18031D   25345.18780433  .00001211  00000+0  18152-3 0  9997", "line2": "2 43262  98.0804  43.0221 0001090  56.2311 303.9002 14.76443362414947"}}, "geometry": {"type": "Point", "coordinates": [47.53167616052608, -27.513443908426506]}}, {"type": "Feature", "properties": {"norad_id": 43437, "name": "SENTINEL-3B", "group": "resource", "lat": 8.518084589269042, "lon": 49.354341651240105, "alt_km": 804.4901858489729, "timestamp": "2025-12-11T10:53:15.542589+00:00", "meta": {"OBJECT_NAME": "SENTINEL-3B", "OBJECT_ID": "2018-039A", "EPOCH": "2025-12-11T04:06:53.766432", "MEAN_MOTION": 14.26741926, "ECCENTRICITY": 0.0001555, "INCLINATION": 98.6269, "RA_OF_ASC_NODE": 50.3791, "ARG_OF_PERICENTER": 104.5822, "MEAN_ANOMALY": 255.5531, "EPHEMERIS_TYPE": 0, "CLASSIFICATION_TYPE": "U", "NORAD_CAT_ID": 43437, "ELEMENT_SET_NO": 999, "REV_AT_EPOCH": 39731, "BSTAR": 0.00011128, "MEAN_MOTION_DOT": 2.26e-06, "MEAN_MOTION_DDOT": 0}, "tle": {"line1": "1 43437U 18039A   25345.17145563  .00000226  00000+0  11128-3 0  9998", "line2": "2 43437  98.6269  50.3791 0001555 104.5822 255.5531 14.26741926397317"}}, "geometry": {"type": "Point", "coordinates": [49.354341651240105, 8.518084589269042]}}, {"type": "Feature", "properties": {"norad_id": 43461, "name": "GAOFEN-5 01", "group": "resource", "lat": -22.013087798447184, "lon": 124.96003458913314, "alt_km": 697.8251311069762, "timestamp": "2025-12-11T10:53:15.542599+00:00", "meta": {"OBJECT_NAME": "GAOFEN-5 01", "OBJECT_ID": "2018-043A", "EPOCH": "2025-12-10T15:52:37.152768", "MEAN_MOTION": 14.6040665, "ECCENTRICITY": 0.00010926, "INCLINATION": 98.4324, "RA_OF_ASC_NODE": 307.5925, "ARG_OF_PERICENTER": 348.2801, "MEAN_ANOMALY": 11.8373, "EPHEMERIS_TYPE": 0, "CLASSIFICATION_TYPE": "U", "NORAD_CAT_ID": 43461, "ELEMENT_SET_NO": 999, "REV_AT_EPOCH": 40417, "BSTAR": 0.00018403532, "MEAN_MOTION_DOT": 8.42e-06, "MEAN_MOTION_DDOT": 0}, "tle": {"line1": "1 43461U 18043A   25344.66154112  .00000842  00000+0  18404-3 0  9991", "line2": "2 43461  98.4324 307.5925 0001092 348.2801  11.8373 14.60406650404170"}}, "geometry": {"type": "Point", "coordinates": [124.96003458913314, -22.013087798447184]}}, {"type": "Feature", "properties": {"norad_id": 43484, "name": "GAOFEN-6", "group": "resource", "lat": 56.018726816843916, "lon": -118.49832185897091, "alt_km": 629.6064241591775, "timestamp": "2025-12-11T10:53:15.542610+00:00", "meta": {"OBJECT_NAME": "GAOFEN-6", "OBJECT_ID": "2018-048A", "EPOCH": "2025-12-11T05:27:14.512320", "MEAN_MOTION": 14.76562589, "ECCENTRICITY": 0.0013253, "INCLINATION": 97.8029, "RA_OF_ASC_NODE": 49.5446, "ARG_OF_PERICENTER": 68.1326, "MEAN_ANOMALY": 292.1292, "EPHEMERIS_TYPE": 0, "CLASSIFICATION_TYPE": "U", "NORAD_CAT_ID": 43484, "ELEMENT_SET_NO": 999, "REV_AT_EPOCH": 40565, "BSTAR": 0.00022657, "MEAN_MOTION_DOT": 1.533e-05, "MEAN_MOTION_DDOT": 0}, "tle": {"line1": "1 43484U 18048A   25345.22725130  .00001533  00000+0  22657-3 0  9991", "line2": "2 43484  97.8029  49.5446 0013253  68.1326 292.1292 14.76562589405652"}}, "geometry": {"type": "Point", "coordinates": [-118.49832185897091, 56.018726816843916]}}, {"type": "Feature", "properties": {"norad_id": 43585, "name": "GAOFEN-11 01", "group": "resource", "lat": -45.759425890569666, "lon": 55.81029243107791, "alt_km": 423.0254108381505, "timestamp": "2025-12-11T10:53:15.542621+00:00", "meta": {"OBJECT_NAME": "GAOFEN-11 01", "OBJECT_ID": "2018-063A", "EPOCH": "2025-12-11T04:53:08.479104", "MEAN_MOTION": 15.4915405, "ECCENTRICITY": 0.0004392, "INCLINATION": 97.1555, "RA_OF_ASC_NODE": 48.1502, "ARG_OF_PERICENTER": 320.8293, "MEAN_ANOMALY": 39.2641, "EPHEMERIS_TYPE": 0, "CLASSIFICATION_TYPE": "U", "NORAD_CAT_ID": 43585, "ELEMENT_SET_NO": 999, "REV_AT_EPOCH": 41118, "BSTAR": 0.00051025, "MEAN_MOTION_DOT": 0.00027735, "MEAN_MOTION_DDOT": 0}, "tle": {"line1": "1 43585U 18063A   25345.20357036  .00027735  00000+0  51025-3 0  9997", "line2": "2 43585  97.1555  48.1502 0004392 320.8293  39.2641 15.49154050411188"}}, "geometry": {"type": "Point", "coordinates": [55.81029243107791, -45.759425890569666]}}, {"type": "Feature", "properties": {"norad_id": 43613, "name": "ICESAT-2", "group": "resource", "lat": 33.039309326247874, "lon": 61.69536724424415, "alt_km": 477.17598817762973, "timestamp": "2025-12-11T10:53:15.542631+00:00", "meta": {"OBJECT_NAME": "ICESAT-2", "OBJECT_ID": "2018-070A", "EPOCH": "2025-12-11T03:57:41.576256", "MEAN_MOTION": 15.28329689, "ECCENTRICITY": 0.0002582, "INCLINATION": 92.0043, "RA_OF_ASC_NODE": 240.3124, "ARG_OF_PERICENTER": 152.868, "MEAN_ANOMALY": 207.2705, "EPHEMERIS_TYPE": 0, "CLASSIFICATION_TYPE": "U", "NORAD_CAT_ID": 43613, "ELEMENT_SET_NO": 999, "REV_AT_EPOCH": 40374, "BSTAR": 0.00068967, "MEAN_MOTION_DOT": 0.00019042, "MEAN_MOTION_DDOT": 0}, "tle": {"line1": "1 43613U 18070A   25345.16506454  .00019042  00000+0  68967-3 0  9997", "line2": "2 43613  92.0043 240.3124 0002582 152.8680 207.2705 15.28329689403744"}}, "geometry": {"type": "Point", "coordinates": [61.69536724424415, 33.039309326247874]}}, {"type": "Feature", "properties": {"norad_id": 43719, "name": "HYSIS", "group": "resource", "lat": 30.874308980356332, "lon": -126.733677351481, "alt_km": 632.019685216489, "timestamp": "2025-12-11T10:53:15.542642+00:00", "meta": {"OBJECT_NAME": "HYSIS", "OBJECT_ID": "2018-096A", "EPOCH": "2025-12-11T03:43:16.124736", "MEAN_MOTION": 14.78638987, "ECCENTRICITY": 0.0001445, "INCLINATION": 98.0095, "RA_OF_ASC_NODE": 48.1401, "ARG_OF_PERICENTER": 56.895, "MEAN_ANOMALY": 303.2399, "EPHEMERIS_TYPE": 0, "CLASSIFICATION_TYPE": "U", "NORAD_CAT_ID": 43719, "ELEMENT_SET_NO": 999, "REV_AT_EPOCH": 37963, "BSTAR": 0.00031445, "MEAN_MOTION_DOT": 2.251e-05, "MEAN_MOTION_DDOT": 0}, "tle": {"line1": "1 43719U 18096A   25345.15504774  .00002251  00000+0  31445-3 0  9999", "line2": "2 43719  98.0095  48.1401 0001445  56.8950 303.2399 14.78638987379630"}}, "geometry": {"type": "Point", "coordinates": [-126.733677351481, 30.874308980356332]}}, {"type": "Feature", "properties": {"norad_id": 43783, "name": "KAZSTSAT", "group": "resource", "lat": -69.55938325553093, "lon": 41.26539415030696, "alt_km": 573.3600155110062, "timestamp": "2025-12-11T10:53:15.542653+00:00", "meta": {"OBJECT_NAME": "KAZSTSAT", "OBJECT_ID": "2018-099AB", "EPOCH": "2025-12-11T01:35:34.661760", "MEAN_MOTION": 14.99344949, "ECCENTRICITY": 0.000599, "INCLINATION": 97.4559, "RA_OF_ASC_NODE": 20.3232, "ARG_OF_PERICENTER": 337.2681, "MEAN_ANOMALY": 22.8276, "EPHEMERIS_TYPE": 0, "CLASSIFICATION_TYPE": "U", "NORAD_CAT_ID": 43783, "ELEMENT_SET_NO": 999, "REV_AT_EPOCH": 38311, "BSTAR": 0.00018724, "MEAN_MOTION_DOT": 2.234e-05, "MEAN_MOTION_DDOT": 0}, "tle": {"line1": "1 43783U 18099AB  25345.06637340  .00002234  00000+0  18724-3 0  9995", "line2": "2 43783  97.4559  20.3232 0005990 337.2681  22.8276 14.99344949383110"}}, "geometry": {"type": "Point", "coordinates": [41.26539415030696, -69.55938325553093]}}, {"type": "Feature", "properties": {"norad_id": 43831, "name": "SAUDISAT 5A", "group": "resource", "lat": -40.12776973211172, "lon": -140.5644324733511, "alt_km": 501.7173444063219, "timestamp": "2025-12-11T10:53:15.542663+00:00", "meta": {"OBJECT_NAME": "SAUDISAT 5A", "OBJECT_ID": "2018-102A", "EPOCH": "2025-12-11T05:12:10.472832", "MEAN_MOTION": 15.25625916, "ECCENTRICITY": 0.0011799, "INCLINATION": 97.3353, "RA_OF_ASC_NODE": 45.4369, "ARG_OF_PERICENTER": 80.9637, "MEAN_ANOMALY": 279.2936, "EPHEMERIS_TYPE": 0, "CLASSIFICATION_TYPE": "U", "NORAD_CAT_ID": 43831, "ELEMENT_SET_NO": 999, "REV_AT_EPOCH": 38699, "BSTAR": 0.00038768, "MEAN_MOTION_DOT": 9.808e-05, "MEAN_MOTION_DDOT": 0}, "tle": {"line1": "1 43831U 18102A   25345.21678788  .00009808  00000+0  38768-3 0  9996", "line2": "2 43831  97.3353  45.4369 0011799  80.9637 279.2936 15.25625916386997"}}, "geometry": {"type": "Point", "coordinates": [-140.5644324733511, -40.12776973211172]}}, {"type": "Feature", "properties": {"norad_id": 43833, "name": "SAUDISAT 5B", "group": "resource", "lat": -82.59237891677361, "lon": 131.20200546047485, "alt_km": 503.6997008150847, "timestamp": "2025-12-11T10:53:15.542674+00:00", "meta": {"OBJECT_NAME": "SAUDISAT 5B", "OBJECT_ID": "2018-102C", "EPOCH": "2025-12-11T04:58:58.870848", "MEAN_MOTION": 15.25978502, "ECCENTRICITY": 0.0012505, "INCLINATION": 97.3447, "RA_OF_ASC_NODE": 48.1638, "ARG_OF_PERICENTER": 83.2366, "MEAN_ANOMALY": 277.0295, "EPHEMERIS_TYPE": 0, "CLASSIFICATION_TYPE": "U", "NORAD_CAT_ID": 43833, "ELEMENT_SET_NO": 999, "REV_AT_EPOCH": 38710, "BSTAR": 0.00037943, "MEAN_MOTION_DOT": 9.703e-05, "MEAN_MOTION_DDOT": 0}, "tle": {"line1": "1 43833U 18102C   25345.20762582  .00009703  00000+0  37943-3 0  9991", "line2": "2 43833  97.3447  48.1638 0012505  83.2366 277.0295 15.25978502387103"}}, "geometry": {"type": "Point", "coordinates": [131.20200546047485, -82.59237891677361]}}]}